SL-4 R/B                
1 39679U 14021B   26063.10976345  .00022432  00000+0  49244-3 0  9992
2 39679  51.6089   4.4953 0097984  82.6607 278.5500 15.38961697655419
ALOS-2                  
1 39766U 14029A   26063.24063209  .00003246  00000+0  44123-3 0  9991
2 39766  97.9205 161.9169 0001506 100.1773 259.9609 14.79479069636066
YAOGAN-29               
1 41038U 15069A   26063.19427810  .00000425  00000+0  58970-4 0  9999
2 41038  98.0149  91.6089 0002238  45.3358 314.8038 14.82988223555060
ASTRO-H (HITOMI)        
1 41337U 16012A   26063.14748952  .00005164  00000+0  30445-3 0  9999
2 41337  31.0006  32.3099 0010017 275.9632  83.9865 15.09958059551392
HXMT (HUIYAN)           
1 42758U 17034A   26063.18256135  .00007688  00000+0  38436-3 0  9994
2 42758  43.0149  47.2877 0032357 202.2175 157.7273 15.17375601481701
SAOCOM 1A               
1 43641U 18076A   26063.15713543  .00000999  00000+0  13205-3 0  9996
2 43641  97.8882 251.4077 0001323  80.5734 279.5629 14.82163622400542
H-2A R/B                
1 43682U 18084L   26063.14932905  .00029154  00000+0  69806-3 0  9996
2 43682  98.8734 279.3544 0025781  44.1315 316.1978 15.41065297404923
SAOCOM 1B               
1 46265U 20059A   26063.18835852  .00000105  00000+0  19708-4 0  9990
2 46265  97.8881 250.5364 0001440  80.6522 279.4854 14.82163840297939
CSS (TIANHE)            
1 48274U 21035A   26063.14773523  .00030185  00000+0  35996-3 0  9996
2 48274  41.4658 241.8750 0006828 240.6834 119.3323 15.60380094276747
COSMOS 2550             
1 48865U 21056A   26063.17030598 -.00000196  00000+0 -13526-6 0  9995
2 48865  67.1447  57.6266 0008419 269.1758  90.8432 15.33832863262619
CZ-2C R/B               
1 52794U 22058K   26063.17532213  .00045844  00000+0  67772-3 0  9991
2 52794  50.1907 346.6454 0042178 177.4326 182.6868 15.53767749209278
CZ-2C R/B               
1 54039U 22132E   26062.92470767  .00056745  00000+0  66030-3 0  9993
2 54039  97.2956  66.0687 0020745 109.5338 250.8162 15.61267902189473
